IRIDIUM 144             
1 43249U 18030A   24149.77717109  .00000384  00000+0  13011-3 0  9996
2 43249  86.3985 243.5680 0002152 102.0046 258.1391 14.34217804322723
IRIDIUM 149             
1 43250U 18030B   24149.78351253  .00000236  00000+0  77121-4 0  9992
2 43250  86.3984 243.5406 0002297  97.7688 262.3769 14.34217887322741
IRIDIUM 157             
1 43251U 18030C   24149.80254061  .00000095  00000+0  26755-4 0  9995
2 43251  86.3988 243.5693 0002501  90.3261 269.8221 14.34217923322722
IRIDIUM 140             
1 43252U 18030D   24149.75179786  .00000094  00000+0  26618-4 0  9997
2 43252  86.3986 243.6050 0001862 102.8284 257.3120 14.34218104322779
IRIDIUM 145             
1 43253U 18030E   24149.80888255  .00000137  00000+0  41966-4 0  9993
2 43253  86.3986 243.5552 0002341 105.7528 254.3927 14.34217867322713
IRIDIUM 146             
1 43254U 18030F   24149.78985584  .00000343  00000+0  11540-3 0  9997
2 43254  86.3986 243.5777 0002231 100.0069 260.1379 14.34216425322725
IRIDIUM 148             
1 43255U 18030G   24149.75814445  .00000382  00000+0  12941-3 0  9991
2 43255  86.3987 243.6225 0002404  93.1338 267.0133 14.34218233322755
IRIDIUM 142             
1 43256U 18030H   24149.79619974  .00000371  00000+0  12541-3 0  9990
2 43256  86.3984 243.5231 0002270 100.6976 259.4475 14.34219279322724
